OBJECT_NAME,OBJECT_ID,EPOCH,MEAN_MOTION,ECCENTRICITY,INCLINATION,RA_OF_ASC_NODE,ARG_OF_PERICENTER,MEAN_ANOMALY,EPHEMERIS_TYPE,CLASSIFICATION_TYPE,NORAD_CAT_ID,ELEMENT_SET_NO,REV_AT_EPOCH,BSTAR,MEAN_MOTION_DOT,MEAN_MOTION_DDOT
INMARSAT 4-F3,2008-039A,2026-06-10T05:58:55.625088,1.00273121,.0002769,4.2871,31.6013,49.4019,169.3302,0,U,33278,999,4647,0,-.126E-5,0
NIMIQ 4,2008-044A,2026-06-10T07:46:08.344416,1.00269795,.0002006,0.0225,299.9079,142.8031,210.4999,0,U,33373,999,6491,0,-.203E-5,0
GALAXY 19 (G-19),2008-045A,2026-06-10T07:41:53.751264,1.00270983,.0002656,0.0139,277.2517,161.6400,198.2761,0,U,33376,999,6483,0,-.122E-5,0
ASTRA 1M,2008-057A,2026-06-10T08:14:58.080192,1.00268946,.0004686,0.2778,82.3499,19.7619,299.7252,0,U,33436,999,4566,0,.138E-5,0
EUTELSAT HOTBIRD 13C,2008-065A,2026-06-10T07:55:07.482144,1.00270085,.0003592,2.9317,79.2703,2.1357,245.7610,0,U,33459,999,4727,0,-.266E-5,0
EXPRESS-AM44,2009-007A,2026-06-10T04:41:04.532640,1.00271669,.00042236,3.4445,78.4819,355.6939,243.6566,0,U,33595,999,5221,0,-.72E-6,0
NSS-9,2009-008A,2026-06-10T11:01:38.780832,1.00271871,.0002038,1.2434,82.7210,345.5797,178.9956,0,U,33749,999,6345,0,.89E-6,0
TELSTAR 11N,2009-009A,2026-06-10T06:16:04.187712,1.00274399,.0002383,0.0193,8.9951,64.7753,241.3244,0,U,34111,999,4617,0,-.233E-5,0
WGS F2 (USA 204),2009-017A,2026-06-10T10:49:38.661024,1.00271523,.0000459,0.0172,341.4550,262.8601,234.4288,0,U,34713,999,4555,0,.85E-6,0
SES-7 (PROTOSTAR 2),2009-027A,2026-06-10T10:23:00.742272,1.00272258,.000082,0.0452,73.3090,97.3165,352.2056,0,U,34941,999,6256,0,-.328E-5,0
MEASAT-3A,2009-032A,2026-06-10T11:09:38.704320,1.00271470,.0002948,0.0254,13.1933,63.0728,149.9755,0,U,35362,999,796,0,-.93E-6,0
GOES 14,2009-033A,2026-06-10T08:51:01.538784,1.00113242,.0001856,1.6715,83.1236,6.5937,87.5143,0,U,35491,999,652,0,-.246E-5,0
FM-5,2009-034A,2026-06-10T07:44:53.463264,1.00270705,.0000652,0.0175,292.9967,1.3311,354.4362,0,U,35493,999,4657,0,-.183E-5,0
TERRESTAR-1,2009-035A,2026-06-10T10:45:38.663424,1.00270569,.0002588,5.1785,48.7967,28.6350,231.7779,0,U,35496,999,6206,0,-.42E-6,0
ASIASAT 5,2009-042A,2026-06-09T08:40:55.227648,1.00271303,.0001488,0.0179,62.7257,358.0585,67.6933,0,U,35696,999,6163,0,-.29E-5,0
JCSAT-12 (JCSAT-RA),2009-044A,2026-06-10T08:47:09.411360,1.00270178,.0000213,0.0105,348.9385,169.4450,4.1691,0,U,35755,999,6154,0,-.31E-5,0
OPTUS D3,2009-044B,2026-06-10T09:54:38.746080,1.00269697,.0002948,0.8655,269.4969,173.7058,120.3719,0,U,35756,999,6149,0,-.128E-5,0
NIMIQ 5,2009-050A,2026-06-10T07:48:45.592416,1.00271312,.0002853,0.0299,277.8366,156.9788,228.3709,0,U,35873,999,6127,0,-.239E-5,0
AMAZONAS 2,2009-054A,2026-06-10T09:15:13.896000,1.00271202,.0003327,1.7971,83.1365,352.6190,249.8195,0,U,35942,999,6111,0,-.242E-5,0
COMSATBW-1,2009-054B,2026-06-10T03:19:28.055424,1.00271937,.00029009,0.0632,76.8238,7.8124,286.7402,0,U,35943,999,6123,0,.42E-6,0
NSS-12,2009-058A,2026-06-10T10:49:38.661024,1.00271153,.0004705,0.0724,66.2308,342.7989,69.1874,0,U,36032,999,6085,0,.89E-6,0
THOR 6,2009-058B,2026-06-10T08:09:13.631040,1.00271520,.0002235,0.0159,253.2769,217.9664,268.9187,0,U,36033,999,6093,0,.8E-7,0
INTELSAT 14 (IS-14),2009-064A,2026-06-10T07:56:37.339008,1.00269898,.0002728,0.0171,347.6386,109.2328,235.9805,0,U,36097,999,6053,0,-.256E-5,0
EUTELSAT 36B,2009-065A,2026-06-10T04:58:25.370112,1.00271263,.000596,0.4726,81.0215,357.0019,305.6378,0,U,36101,999,6063,0,.13E-5,0
INTELSAT 15 (IS-15),2009-067A,2026-06-10T10:16:23.875104,1.00270745,.0002188,0.0167,354.7930,89.0685,54.1774,0,U,36106,999,4116,0,-.167E-5,0
WGS F3 (USA 211),2009-068A,2026-06-10T11:26:38.664096,1.00271127,.0000281,0.3324,85.8119,1.2907,213.4205,0,U,36108,999,4652,0,.81E-6,0
DIRECTV 12,2009-075A,2026-06-10T05:57:33.254784,1.00268056,.0000109,0.0475,139.6915,293.2739,172.3118,0,U,36131,999,4648,0,-.85E-6,0
BEIDOU-2 G1,2010-001A,2026-06-10T12:14:54.731616,1.00273494,.0002532,4.2767,60.4272,304.9332,217.7105,0,U,36287,999,6010,0,-.264E-5,0
SDO,2010-005A,2026-06-09T10:58:19.824096,1.00270666,.00015715,34.6348,86.4608,53.7612,180.1782,0,U,36395,999,5998,0,-.63E-6,0
INTELSAT 16 (IS-16),2010-006A,2026-06-10T07:47:45.686976,1.00269318,.0002115,0.0079,326.9433,132.6639,199.8214,0,U,36397,999,5958,0,-.227E-5,0
EWS-G2 (GOES 15),2010-008A,2026-06-10T10:10:16.961952,1.00275696,.0005435,1.2581,82.9688,39.6409,352.3756,0,U,36411,999,5957,0,.36E-6,0
ECHOSTAR 14,2010-010A,2026-06-10T11:18:38.724192,1.00272120,.0002387,0.0516,90.0697,7.5716,211.9579,0,U,36499,999,4648,0,.18E-6,0
